NORAD_CAT_ID,OBJECT_NAME,OBJECT_TYPE,EPOCH,MEAN_MOTION,ECCENTRICITY,INCLINATION,RA_OF_ASC_NODE,ARG_OF_PERICENTER,MEAN_ANOMALY,BSTAR,MEAN_MOTION_DOT,MEAN_MOTION_DDOT,TLE_LINE0,TLE_LINE1,TLE_LINE2,SEMIMAJOR_AXIS,PERIOD,APOGEE,PERIGEE,DECAYED
53406.0,STARLINK-4533,PAYLOAD,2022-10-21 22:00:00,15.08865503,0.0002119,53.2146,257.2313,55.6684,280.5113,-0.0019581,-0.00031339,0.0,0 STARLINK-4533,1 53406U 22097U   22294.91667824 -.00031339  00000-0 -19581-2 0  9997,2 53406  53.2146 257.2313 0002119  55.6684 280.5113 15.08865503  1306,6917.802,95.436,541.133,538.202,0.0
53406.0,STARLINK-4533,PAYLOAD,2022-10-22 14:00:01,15.0885714,0.0002070999999999,53.2144,254.2388,50.6709,308.711,-0.0038973,-0.00061813,0.0,0 STARLINK-4533,1 53406U 22097U   22295.58334491 -.00061813  00000-0 -38973-2 0  9998,2 53406  53.2144 254.2388 0002071  50.6709 308.7110 15.08857140  1301,6917.828,95.436,541.126,538.26,0.0
53406.0,STARLINK-4533,PAYLOAD,2022-10-22 22:00:00,15.08834094,0.0001959,53.2147,252.7419,55.1944,315.7794,0.0016163,0.00025525,0.0,0 STARLINK-4533,1 53406U 22097U   22295.91667824  .00025525  00000-0  16163-2 0  9999,2 53406  53.2147 252.7419 0001959  55.1944 315.7794 15.08834094  1306,6917.898,95.438,541.119,538.408,0.0
53406.0,STARLINK-4533,PAYLOAD,2022-10-23 00:00:02,15.08851942,0.0001998,53.2147,252.3682,53.9434,49.9875,-0.00050365,-8.298e-05,0.0,0 STARLINK-4533,1 53406U 22097U   22296.00002315 -.00008298  00000-0 -50365-3 0  9991,2 53406  53.2147 252.3682 0001998  53.9434  49.9875 15.08851942 11912,6917.844,95.437,541.091,538.327,0.0
53406.0,STARLINK-4533,PAYLOAD,2022-10-23 14:00:01,15.08881581,0.0001963,53.2144,249.7492,51.6579,342.5256,-0.0036663,-0.00058233,0.0,0 STARLINK-4533,1 53406U 22097U   22296.58334491 -.00058233  00000-0 -36663-2 0  9995,2 53406  53.2144 249.7492 0001963  51.6579 342.5256 15.08881581  1304,6917.753000000002,95.435,540.976,538.26,0.0
53406.0,STARLINK-4533,PAYLOAD,2022-10-23 22:00:00,15.08862811,0.0001809,53.2146,248.2525,53.6438,352.1515,-0.0024695999999999,-0.00039402,0.0,0 STARLINK-4533,1 53406U 22097U   22296.91667824 -.00039402  00000-0 -24696-2 0  9991,2 53406  53.2146 248.2525 0001809  53.6438 352.1515 15.08862811  1302,6917.811,95.436,540.927,538.424,0.0
53406.0,STARLINK-4533,PAYLOAD,2022-10-24 06:00:00,15.08828287,0.0001863,53.2145,246.7577,45.6463,11.7579,-0.0023879,-0.0003808,0.0,0 STARLINK-4533,1 53406U 22097U   22297.25001157 -.00038080  00000-0 -23879-2 0  9993,2 53406  53.2145 246.7577 0001863  45.6463  11.7579 15.08828287 12107,6917.916,95.438,541.07,538.492,0.0
53406.0,STARLINK-4533,PAYLOAD,2022-10-24 14:00:01,15.08777132,0.0001682,53.2144,245.2598,47.2217,21.7544,0.0012894,0.00020257,0.0,0 STARLINK-4533,1 53406U 22097U   22297.58334491  .00020257  00000-0  12894-2 0  9999,2 53406  53.2144 245.2598 0001682  47.2217  21.7544 15.08777132  1302,6918.073,95.442,541.101,538.774,0.0
53406.0,STARLINK-4533,PAYLOAD,2022-10-24 22:00:00,15.08818264,0.000172,53.2144,243.7634,51.7176,28.7756,0.00075056,0.0001167,0.0,0 STARLINK-4533,1 53406U 22097U   22297.91667824  .00011670  00000-0  75056-3 0  9994,2 53406  53.2144 243.7634 0001720  51.7176  28.7756 15.08818264  1307,6917.946999999999,95.439,541.002,538.622,0.0
53406.0,STARLINK-4533,PAYLOAD,2022-10-25 00:00:00,15.08832502,0.0001766999999999,53.2145,243.3898,50.4791,122.9033,-0.0011012,-0.00017768,0.0,0 STARLINK-4533,1 53406U 22097U   22298.00001157 -.00017768  00000-0 -11012-2 0  9993,2 53406  53.2145 243.3898 0001767  50.4791 122.9033 15.08832502 12214,6917.903,95.438,540.991,538.5459999999998,0.0
53406.0,STARLINK-4533,PAYLOAD,2022-10-25 14:00:01,15.08835126,0.0001771,53.2144,240.7706,49.8181,53.8271,0.00014334,1.994e-05,0.0,0 STARLINK-4533,1 53406U 22097U   22298.58334491  .00001994  00000-0  14334-3 0  9999,2 53406  53.2144 240.7706 0001771  49.8181  53.8271 15.08835126  1301,6917.895,95.438,540.985,538.535,0.0
53406.0,STARLINK-4533,PAYLOAD,2022-10-25 22:00:01,15.08855223,0.0001816,53.2145,239.2741,53.2307,62.0617,-0.00018666,-3.259e-05,0.0,0 STARLINK-4533,1 53406U 22097U   22298.91668981 -.00003259  00000-0 -18666-3 0  9990,2 53406  53.2145 239.2741 0001816  53.2307  62.0617 15.08855223  1309,6917.834,95.437,540.955,538.443,0.0
53406.0,STARLINK-4533,PAYLOAD,2022-10-26 14:00:01,15.08849458,0.0001792,53.2146,236.2813,49.7505,88.7104,-0.0009516,-0.00015405,0.0,0 STARLINK-4533,1 53406U 22097U   22299.58334491 -.00015405  00000-0 -95160-3 0  9990,2 53406  53.2146 236.2813 0001792  49.7505  88.7104 15.08849458  1309,6917.851,95.437,540.956,538.477,0.0
53406.0,STARLINK-4533,PAYLOAD,2022-10-26 22:00:00,15.08853423,0.0001889,53.2147,234.785,53.5613,96.498,-0.0020846,-0.00033324,0.0,0 STARLINK-4533,1 53406U 22097U   22299.91667824 -.00033324  00000-0 -20846-2 0  9994,2 53406  53.2147 234.7850 0001889  53.5613  96.4980 15.08853423 12503,6917.839,95.437,541.011,538.398,0.0
53406.0,STARLINK-4533,PAYLOAD,2022-10-27 14:00:01,15.08849001,0.0001911,53.2148,231.792,51.668,121.6446,0.00022974,3.371e-05,0.0,0 STARLINK-4533,1 53406U 22097U   22300.58335648  .00003371  00000-0  22974-3 0  9998,2 53406  53.2148 231.7920 0001911  51.6680 121.6446 15.08849001  1309,6917.853,95.437,541.04,538.396,0.0
53406.0,STARLINK-4533,PAYLOAD,2022-10-27 22:00:00,15.08858172,0.0001914,53.215,230.296,53.2373,131.62,-0.0013257,-0.00021336,0.0,0 STARLINK-4533,1 53406U 22097U   22300.91667824 -.00021336  00000-0 -13257-2 0  9995,2 53406  53.2150 230.2960 0001914  53.2373 131.6200 15.08858172  1308,6917.825,95.436,541.014,538.366,0.0
53406.0,STARLINK-4533,PAYLOAD,2022-10-28 14:00:01,15.08833737,0.0001789,53.2149,227.3028,49.1223,159.0157,0.0009631,0.0001506999999999,0.0,0 STARLINK-4533,1 53406U 22097U   22301.58335648  .00015070  00000-0  96310-3 0  9993,2 53406  53.2149 227.3028 0001789  49.1223 159.0157 15.08833737  1301,6917.9,95.438,541.002,538.5269999999998,0.0
53406.0,STARLINK-4533,PAYLOAD,2022-10-28 22:00:01,15.08845577,0.0001793,53.215,225.8069,49.2343,170.4937,-0.0012282,-0.00019785,0.0,0 STARLINK-4533,1 53406U 22097U   22301.91668981 -.00019785  00000-0 -12282-2 0  9993,2 53406  53.2150 225.8069 0001793  49.2343 170.4937 15.08845577  1308,6917.863,95.437,540.969,538.488,0.0
53406.0,STARLINK-4533,PAYLOAD,2022-10-29 12:00:00,15.08834734,0.0001684,53.2147,223.1882,45.176,104.7845,0.00013014,1.783e-05,0.0,0 STARLINK-4533,1 53406U 22097U   22302.50001157  .00001783  00000-0  13014-3 0  9997,2 53406  53.2147 223.1882 0001684  45.1760 104.7845 15.08834734  1306,6917.896,95.438,540.9259999999998,538.597,0.0
53406.0,STARLINK-4533,PAYLOAD,2022-10-29 22:00:01,15.08851161,0.0001763,53.2147,221.3179,48.5895,205.9263,-0.0015895,-0.00025504,0.0,0 STARLINK-4533,1 53406U 22097U   22302.91668981 -.00025504  00000-0 -15895-2 0  9993,2 53406  53.2147 221.3179 0001763  48.5895 205.9263 15.08851161  1300,6917.846,95.437,540.931,538.492,0.0
53406.0,STARLINK-4533,PAYLOAD,2022-10-30 00:00:00,15.08853967,0.0001814,53.2146,220.9443,46.4916,300.8605,-0.0025874,-0.00041247,0.0,0 STARLINK-4533,1 53406U 22097U   22303.00001157 -.00041247  00000-0 -25874-2 0  9990,2 53406  53.2146 220.9443 0001814  46.4916 300.8605 15.08853967 12972,6917.8380000000025,95.437,540.9580000000002,538.448,0.0
53406.0,STARLINK-4533,PAYLOAD,2022-10-30 14:00:01,15.08802651,0.0001615,53.2143,218.3245,45.6424,231.9902,0.0011974,0.00018801,0.0,0 STARLINK-4533,1 53406U 22097U   22303.58334491  .00018801  00000-0  11974-2 0  9997,2 53406  53.2143 218.3245 0001615  45.6424 231.9902 15.08802651  1307,6917.995,95.44,540.977,538.742,0.0
53406.0,STARLINK-4533,PAYLOAD,2022-10-30 22:00:01,15.08839484,0.0001669,53.2143,216.8289,46.5186,242.7308,-0.0014632,-0.00023499,0.0,0 STARLINK-4533,1 53406U 22097U   22303.91668981 -.00023499  00000-0 -14632-2 0  9993,2 53406  53.2143 216.8289 0001669  46.5186 242.7308 15.08839484  1306,6917.882,95.438,540.9019999999998,538.592,0.0
53406.0,STARLINK-4533,PAYLOAD,2022-10-31 14:00:01,15.08796925,0.000171,53.2137,213.8353,50.8346,261.513,0.0036936,0.00058918,0.0,0 STARLINK-4533,1 53406U 22097U   22304.58334491  .00058918  00000-0  36936-2 0  9996,2 53406  53.2137 213.8353 0001710  50.8346 261.5130 15.08796925  1305,6918.012,95.44,541.06,538.694,0.0
53406.0,STARLINK-4533,PAYLOAD,2022-10-31 22:00:01,15.08851305,0.0001783,53.2138,212.3398,50.5132,273.4623,-0.00061708,-0.00010099,0.0,0 STARLINK-4533,1 53406U 22097U   22304.91668981 -.00010099  00000-0 -61708-3 0  9993,2 53406  53.2138 212.3398 0001783  50.5132 273.4623 15.08851305  1302,6917.846,95.437,540.944,538.477,0.0
53406.0,STARLINK-4533,PAYLOAD,2022-11-01 00:00:02,15.08852412,0.0001844,53.2136,211.9662,48.8625,8.0138,-0.00095705,-0.00015493,0.0,0 STARLINK-4533,1 53406U 22097U   22305.00002315 -.00015493  00000-0 -95705-3 0  9994,2 53406  53.2136 211.9662 0001844  48.8625   8.0138 15.08852412 13276,6917.842,95.437,540.9830000000002,538.432,0.0
53406.0,STARLINK-4533,PAYLOAD,2022-11-01 14:00:01,15.08832177,0.0001681,53.2134,209.3459,51.2535,295.8828,0.0017312999999999,0.00027367,0.0,0 STARLINK-4533,1 53406U 22097U   22305.58334491  .00027367  00000-0  17313-2 0  9999,2 53406  53.2134 209.3459 0001681  51.2535 295.8828 15.08832177  1305,6917.904,95.438,540.932,538.606,0.0
53406.0,STARLINK-4533,PAYLOAD,2022-11-01 22:00:00,15.08842718,0.0001867,53.2135,207.8505,52.0201,306.7163,-0.00076074,-0.00012376,0.0,0 STARLINK-4533,1 53406U 22097U   22305.91667824 -.00012376  00000-0 -76074-3 0  9991,2 53406  53.2135 207.8505 0001867  52.0201 306.7163 15.08842718 13417,6917.871999999999,95.437,541.029,538.446,0.0
53406.0,STARLINK-4533,PAYLOAD,2022-11-02 14:00:01,15.08825823,0.0001701,53.2152,204.8536,52.9483,328.9767,0.00029445,4.399e-05,0.0,0 STARLINK-4533,1 53406U 22097U   22306.58334491  .00004399  00000-0  29445-3 0  9990,2 53406  53.2152 204.8536 0001701  52.9483 328.9767 15.08825823  1304,6917.924,95.438,540.965,538.612,0.0
